ONEWEB-0020             
1 45133U 20008C   24181.05664831  .00000573  00000+0  16040-2 0  9992
2 45133  87.8938 179.0557 0001890  84.1986 275.9357 13.10372969215073
ONEWEB-0021             
1 45134U 20008D   24180.91887356  .00000437  00000+0  12168-2 0  9992
2 45134  87.8937 179.0990 0002251  87.4820 272.6564 13.10369437214584
ONEWEB-0023             
1 45136U 20008F   24180.93131701 -.00000141  00000+0 -44018-3 0  9996
2 45136  87.8935 179.0863 0001937 100.5429 259.5917 13.10371788214011
ONEWEB-0024             
1 45137U 20008G   24180.90227916  .00000552  00000+0  15458-2 0  9997
2 45137  87.8931 179.0785 0002117  85.8296 274.3073 13.10374705214176
ONEWEB-0025             
1 45138U 20008H   24181.22596211  .00000538  00000+0  15043-2 0  9995
2 45138  87.8925 179.0146 0002194  91.7985 268.3394 13.10370392215298
ONEWEB-0026             
1 45139U 20008J   24181.20594214 -.00000350  00000+0 -10222-2 0  9993
2 45139  87.8966 163.9406 0001916  82.7828 277.3517 13.11415018217882
ONEWEB-0028             
1 45140U 20008K   24181.23732463  .00000285  00000+0  76783-3 0  9998
2 45140  87.8965 163.9738 0002594  95.8655 264.2769 13.11418019214523
ONEWEB-0032             
1 45141U 20008L   24180.93545851 -.00000380  00000+0 -11242-2 0  9994
2 45141  87.8926 179.1185 0002198  89.3515 270.7864 13.10369439214235
